NORAD_CAT_ID,OBJECT_NAME,OBJECT_TYPE,EPOCH,MEAN_MOTION,ECCENTRICITY,INCLINATION,RA_OF_ASC_NODE,ARG_OF_PERICENTER,MEAN_ANOMALY,BSTAR,MEAN_MOTION_DOT,MEAN_MOTION_DDOT,TLE_LINE0,TLE_LINE1,TLE_LINE2,SEMIMAJOR_AXIS,PERIOD,APOGEE,PERIGEE,DECAYED
53541.0,STARLINK-4485,PAYLOAD,2024-05-17 10:36:59,15.08835541,0.0001439,53.2157,162.5765,83.9101,276.2055,-0.0001638,-2.894e-05,0.0,0 STARLINK-4485,1 53541U 22101Q   24138.44235099 -.00002894  00000-0 -16380-3 0  9994,2 53541  53.2157 162.5765 0001439  83.9101 276.2055 15.08835541 97030,6917.894,95.438,540.755,538.764,0.0
53541.0,STARLINK-4485,PAYLOAD,2024-05-17 18:33:54,15.08838036,0.0001432,53.2163,161.0894,84.5113,275.6042,5.1157e-05,5.26e-06,0.0,0 STARLINK-4485,1 53541U 22101Q   24138.77355198  .00000526  00000-0  51157-4 0  9993,2 53541  53.2163 161.0894 0001432  84.5113 275.6042 15.08838036 97083,6917.886,95.438,540.742,538.761,0.0
53541.0,STARLINK-4485,PAYLOAD,2024-05-18 08:52:23,15.08854707,0.0001438,53.2154,158.4139,84.4579,275.6577,0.00074493,0.00011592,0.0,0 STARLINK-4485,1 53541U 22101Q   24139.36971273  .00011592  00000-0  74493-3 0  9999,2 53541  53.2154 158.4139 0001438  84.4579 275.6577 15.08854707 97172,6917.835,95.437,540.695,538.706,0.0
53541.0,STARLINK-4485,PAYLOAD,2024-05-18 18:24:41,15.08847143,0.0001243,53.2153,156.6281,97.0084,263.1049,0.00030104,4.507e-05,0.0,0 STARLINK-4485,1 53541U 22101Q   24139.76715187  .00004507  00000-0  30104-3 0  9992,2 53541  53.2153 156.6281 0001243  97.0084 263.1049 15.08847143 97233,6917.859,95.437,540.583,538.864,0.0
53541.0,STARLINK-4485,PAYLOAD,2024-05-19 00:46:14,15.08846904,0.0001557,53.2138,155.442,87.059,273.058,0.00025001,3.694e-05,0.0,0 STARLINK-4485,1 53541U 22101Q   24140.03211292  .00003694  00000-0  25001-3 0  9998,2 53541  53.2138 155.4420 0001557  87.0590 273.0580 15.08846904 96588,6917.859,95.437,540.801,538.647,0.0
53541.0,STARLINK-4485,PAYLOAD,2024-05-19 08:43:10,15.0883337,0.0001492,53.2158,153.9519,94.5419,265.5743,1.0656e-05,-1.18e-06,0.0,0 STARLINK-4485,1 53541U 22101Q   24140.36331900 -.00000118  00000-0  10656-4 0  9993,2 53541  53.2158 153.9519 0001492  94.5419 265.5743 15.08833370 97326,6917.901,95.438,540.798,538.734,0.0
53541.0,STARLINK-4485,PAYLOAD,2024-05-20 05:23:11,15.08848939,0.0001401,53.216,150.0861,91.6414,268.4738,0.00016549,2.347e-05,0.0,0 STARLINK-4485,1 53541U 22101Q   24141.22443295  .00002347  00000-0  16549-3 0  9991,2 53541  53.2160 150.0861 0001401  91.6414 268.4738 15.08848939 96760,6917.853,95.437,540.687,538.749,0.0
53541.0,STARLINK-4485,PAYLOAD,2024-05-20 06:58:33,15.08852907,0.0001455,53.2162,149.789,95.177,264.9388,8.3367e-05,1.04e-05,0.0,0 STARLINK-4485,1 53541U 22101Q   24141.29067082  .00001040  00000-0  83367-4 0  9996,2 53541  53.2162 149.7890 0001455  95.1770 264.9388 15.08852907 97462,6917.841,95.437,540.712,538.699,0.0
53541.0,STARLINK-4485,PAYLOAD,2024-05-20 21:17:02,15.08840654,0.0001332,53.2147,147.1125,94.9537,265.1607,0.00022423,3.283e-05,0.0,0 STARLINK-4485,1 53541U 22101Q   24141.88683646  .00003283  00000-0  22423-3 0  9997,2 53541  53.2147 147.1125 0001332  94.9537 265.1607 15.08840654 96866,6917.878,95.438,540.665,538.822,0.0
53541.0,STARLINK-4485,PAYLOAD,2024-05-21 06:49:21,15.0883956,0.0001307,53.2147,145.3278,95.4462,264.6679,0.00012297,1.67e-05,0.0,0 STARLINK-4485,1 53541U 22101Q   24142.28427710  .00001670  00000-0  12297-3 0  9996,2 53541  53.2147 145.3278 0001307  95.4462 264.6679 15.08839560 97611,6917.882,95.438,540.651,538.843,0.0
53541.0,STARLINK-4485,PAYLOAD,2024-05-22 05:04:45,15.08841887,0.0001361,53.2146,141.1638,104.2702,255.8442,2.074e-05,4.2e-07,0.0,0 STARLINK-4485,1 53541U 22101Q   24143.21163486  .00000042  00000-0  20740-4 0  9992,2 53541  53.2146 141.1638 0001361 104.2702 255.8442 15.08841887 97064,6917.875,95.437,540.681,538.798,0.0
53541.0,STARLINK-4485,PAYLOAD,2024-05-23 06:30:55,15.08839217,0.0001298,53.216,136.4064,99.8163,260.2976,9.835e-05,1.278e-05,0.0,0 STARLINK-4485,1 53541U 22101Q   24144.27147649  .00001278  00000-0  98350-4 0  9996,2 53541  53.2160 136.4064 0001298  99.8163 260.2976 15.08839217 97223,6917.883,95.438,540.646,538.85,0.0
53541.0,STARLINK-4485,PAYLOAD,2024-05-24 04:46:19,15.08838065,0.0001389,53.217,132.2449,97.4568,262.6582,7.4723e-05,9.01e-06,0.0,0 STARLINK-4485,1 53541U 22101Q   24145.19883919  .00000901  00000-0  74723-4 0  9995,2 53541  53.2170 132.2449 0001389  97.4568 262.6582 15.08838065 98050,6917.886,95.438,540.712,538.79,0.0
53541.0,STARLINK-4485,PAYLOAD,2024-05-25 04:37:07,15.08836586,0.0001426,53.2173,127.785,96.9268,263.1887,4.9017e-05,4.92e-06,0.0,0 STARLINK-4485,1 53541U 22101Q   24146.19244233  .00000492  00000-0  49017-4 0  9999,2 53541  53.2173 127.7850 0001426  96.9268 263.1887 15.08836586 97511,6917.891,95.438,540.742,538.769,0.0
53541.0,STARLINK-4485,PAYLOAD,2024-05-25 07:47:53,15.08838684,0.0001423,53.2173,127.1904,96.0482,264.0672,6.1407e-05,6.89e-06,0.0,0 STARLINK-4485,1 53541U 22101Q   24146.32492075  .00000689  00000-0  61407-4 0  9998,2 53541  53.2173 127.1904 0001423  96.0482 264.0672 15.08838684 98223,6917.884,95.438,540.734,538.765,0.0
53541.0,STARLINK-4485,PAYLOAD,2024-05-26 06:03:17,15.08835076,0.0001435,53.2169,123.027,96.3615,263.7541,4.5051e-05,4.29e-06,0.0,0 STARLINK-4485,1 53541U 22101Q   24147.25228674  .00000429  00000-0  45051-4 0  9992,2 53541  53.2169 123.0270 0001435  96.3615 263.7541 15.08835076 97674,6917.895,95.438,540.753,538.768,0.0
53541.0,STARLINK-4485,PAYLOAD,2024-05-26 15:35:36,15.08831928,0.0001226,53.2176,121.2364,113.9909,246.1211,2.359e-05,8.8e-07,0.0,0 STARLINK-4485,1 53541U 22101Q   24147.64972782  .00000088  00000-0  23590-4 0  9996,2 53541  53.2176 121.2364 0001226 113.9909 246.1211 15.08831928 98421,6917.905,95.438,540.618,538.922,0.0
53541.0,STARLINK-4485,PAYLOAD,2024-05-27 04:18:41,15.08842276,0.0001517,53.2176,118.8629,95.9392,264.1773,9.4558e-05,1.217e-05,0.0,0 STARLINK-4485,1 53541U 22101Q   24148.17964248  .00001217  00000-0  94558-4 0  9990,2 53541  53.2176 118.8629 0001517  95.9392 264.1773 15.08842276 97818,6917.873,95.437,540.788,538.689,0.0
53541.0,STARLINK-4485,PAYLOAD,2024-05-27 21:47:55,15.0883926,0.0001476,53.217,115.5937,92.1961,267.92,6.5027e-05,7.47e-06,0.0,0 STARLINK-4485,1 53541U 22101Q   24148.90828610  .00000747  00000-0  65027-4 0  9999,2 53541  53.2170 115.5937 0001476  92.1961 267.9200 15.08839260 98617,6917.883,95.438,540.769,538.727,0.0
53541.0,STARLINK-4485,PAYLOAD,2024-05-28 04:09:28,15.08839733,0.000143,53.2167,114.4027,95.7927,264.3228,6.2981e-05,7.15e-06,0.0,0 STARLINK-4485,1 53541U 22101Q   24149.17324575  .00000715  00000-0  62981-4 0  9991,2 53541  53.2167 114.4027 0001430  95.7927 264.3228 15.08839733 97965,6917.881,95.438,540.735,538.757,0.0
53541.0,STARLINK-4485,PAYLOAD,2024-05-28 21:38:43,15.08837716,0.0001551,53.2164,111.1326,77.1617,282.9548,1.3126e-05,-7.9e-07,0.0,0 STARLINK-4485,1 53541U 22101Q   24149.90189001 -.00000079  00000-0  13126-4 0  9996,2 53541  53.2164 111.1326 0001551  77.1617 282.9548 15.08837716 98761,6917.887,95.438,540.825,538.679,0.0
53541.0,STARLINK-4485,PAYLOAD,2024-05-29 04:00:15,15.08837611,0.000145,53.2169,109.9432,94.4342,265.6816,4.3572e-06,-2.19e-06,0.0,0 STARLINK-4485,1 53541U 22101Q   24150.16684938 -.00000219  00000-0  43572-5 0  9990,2 53541  53.2169 109.9432 0001450  94.4342 265.6816 15.08837611 98809,6917.888,95.438,540.756,538.75,0.0
53541.0,STARLINK-4485,PAYLOAD,2024-05-29 21:29:30,15.0883911,0.0001387,53.2167,106.6722,90.812,269.3032,5.5284e-05,5.92e-06,0.0,0 STARLINK-4485,1 53541U 22101Q   24150.89548793  .00000592  00000-0  55284-4 0  9993,2 53541  53.2167 106.6722 0001387  90.8120 269.3032 15.08839110 98229,6917.883,95.438,540.708,538.789,0.0
53541.0,STARLINK-4485,PAYLOAD,2024-05-30 07:01:48,15.08842606,0.0001442,53.2173,104.8866,104.9801,255.1351,9.4145e-05,1.211e-05,0.0,0 STARLINK-4485,1 53541U 22101Q   24151.29292440  .00001211  00000-0  94145-4 0  9991,2 53541  53.2173 104.8866 0001442 104.9801 255.1351 15.08842606 98973,6917.872,95.437,540.735,538.74,0.0
53541.0,STARLINK-4485,PAYLOAD,2024-05-31 03:41:49,15.08844197,0.0001422,53.2179,101.0203,102.9329,257.1822,8.5504e-05,1.073e-05,0.0,0 STARLINK-4485,1 53541U 22101Q   24152.15404337  .00001073  00000-0  85504-4 0  9992,2 53541  53.2179 101.0203 0001422 102.9329 257.1822 15.08844197 98415,6917.868,95.437,540.716,538.749,0.0
53541.0,STARLINK-4485,PAYLOAD,2024-05-31 06:52:35,15.08845023,0.0001422,53.2179,100.4245,102.0046,258.1105,0.00010749,1.423e-05,0.0,0 STARLINK-4485,1 53541U 22101Q   24152.28652216  .00001423  00000-0  10749-3 0  9994,2 53541  53.2179 100.4245 0001422 102.0046 258.1105 15.08845023 99124,6917.865,95.437,540.714,538.746,0.0
53541.0,STARLINK-4485,PAYLOAD,2024-06-01 03:32:37,15.08834911,0.0001567,53.219,96.5637,95.217,264.9001,-3.2617e-05,-8.07e-06,0.0,0 STARLINK-4485,1 53541U 22101Q   24153.14765486 -.00000807  00000-0 -32617-4 0  9990,2 53541  53.2190  96.5637 0001567  95.2170 264.9001 15.08834911 98569,6917.896,95.438,540.845,538.677,0.0
53541.0,STARLINK-4485,PAYLOAD,2024-06-01 13:04:56,15.08837793,0.0001558,53.2193,94.78,96.93,263.187,-6.1767e-05,-1.271e-05,0.0,0 STARLINK-4485,1 53541U 22101Q   24153.54509461 -.00001271  00000-0 -61767-4 0  9997,2 53541  53.2193  94.7800 0001558  96.9300 263.1870 15.08837793 99317,6917.887,95.438,540.83,538.674,0.0
53541.0,STARLINK-4485,PAYLOAD,2024-06-02 04:58:47,15.08843578,0.0001425,53.2181,91.8061,97.2152,262.9002,3.192e-05,2.2e-06,0.0,0 STARLINK-4485,1 53541U 22101Q   24154.20748906  .00000220  00000-0  31920-4 0  9999,2 53541  53.2181  91.8061 0001425  97.2152 262.9002 15.08843578 98729,6917.869,95.437,540.72,538.749,0.0
53541.0,STARLINK-4485,PAYLOAD,2024-06-02 12:55:42,15.08847109,0.0001357,53.2177,90.3174,89.9558,270.159,9.6525e-06,-1.34e-06,0.0,0 STARLINK-4485,1 53541U 22101Q   24154.53868700 -.00000134  00000-0  96525-5 0  9998,2 53541  53.2177  90.3174 0001357  89.9558 270.1590 15.08847109 99464,6917.859,95.437,540.662,538.785,0.0
